QIANFAN-89              
1 63175U 25046S   25213.78232776  .00000164  00000+0  23487-3 0  9991
2 63175  88.9859 333.7359 0017953 145.7704 214.4608 13.50963255 29451
QIANFAN-90              
1 63176U 25046T   25213.88518220  .00000174  00000+0  25076-3 0  9991
2 63176  88.9859 333.6975 0014946 142.9979 217.2206 13.50961822 29483
